IRIDIUM 106             
1 41917U 17003A   26095.11761569  .00000151  00000+0  46797-4 0  9994
2 41917  86.3933 119.1139 0002600  97.9103 262.2388 14.34217377482732
IRIDIUM 103             
1 41918U 17003B   26095.31423482  .00000147  00000+0  45298-4 0  9996
2 41918  86.3933 118.9316 0001991  96.0861 264.0561 14.34217227482782
IRIDIUM 109             
1 41919U 17003C   26095.11127568  .00000019  00000+0 -23868-6 0  9991
2 41919  86.3934 119.0749 0002224  93.5887 266.5563 14.34217898482723
IRIDIUM 102             
1 41920U 17003D   26095.14933000  .00000092  00000+0  25852-4 0  9995
2 41920  86.3933 118.9839 0002336  91.4785 268.6679 14.34217487482815
IRIDIUM 105             
1 41921U 17003E   26094.97223383  .00000160  00000+0  49857-4 0  9999
2 41921  86.3915  87.4883 0002200  89.4315 270.7133 14.34399763484641
IRIDIUM 104             
1 41922U 17003F   26095.30155267  .00000027  00000+0  24883-5 0  9998
2 41922  86.3937 118.9618 0001865  90.4900 269.6509 14.34217084482827
IRIDIUM 114             
1 41923U 17003G   26095.30789592  .00000023  00000+0  10369-5 0  9993
2 41923  86.3934 118.9427 0002058  94.0979 266.0452 14.34217719482805
IRIDIUM 108             
1 41924U 17003H   26094.91757495  .00000095  00000+0  26683-4 0  9991
2 41924  86.3910  87.4022 0002334  87.2271 272.9192 14.34219174484601
IRIDIUM 112             
1 41925U 17003J   26095.15567386  .00000010  00000+0 -36421-5 0  9997
2 41925  86.3933 118.8517 0002036  90.7854 269.3575 14.34217580482804
IRIDIUM 111             
1 41926U 17003K   26095.14298868  .00000022  00000+0  82246-6 0  9992
2 41926  86.3932 118.9261 0002214  94.5906 265.5542 14.34217811482785
IRIDIUM 113             
1 42803U 17039A   26095.19272156 -.00000174  00000+0 -69142-4 0  9991
2 42803  86.4017 352.6888 0001785  79.8774 280.2623 14.34218929460723
IRIDIUM 123             
1 42804U 17039B   26095.23419984  .00000235  00000+0  76773-4 0  9993
2 42804  86.4016  24.1153 0002197  90.4055 269.7392 14.34218866459495
IRIDIUM 120             
1 42805U 17039C   26095.18637976 -.00000014  00000+0 -11914-4 0  9994
2 42805  86.4012 352.4839 0002321  85.5716 274.5745 14.34217387460718
IRIDIUM 115             
1 42806U 17039D   26095.18252897  .00000561  00000+0  16069-3 0  9990
2 42806  86.4551 352.6042 0002345  93.2036 266.9434 14.43280292463732
IRIDIUM 118             
1 42807U 17039E   26095.26591131 -.00000048  00000+0 -24185-4 0  9998
2 42807  86.4013  24.1002 0002051  83.6308 276.5122 14.34219310459494
IRIDIUM 117             
1 42808U 17039F   26095.28493953  .00000291  00000+0  96744-4 0  9992
2 42808  86.4014  24.0508 0002155  89.0377 271.1066 14.34219425459526
IRIDIUM 126             
1 42809U 17039G   26095.24054157  .00000131  00000+0  39541-4 0  9993
2 42809  86.4014  24.1192 0002045  87.2011 272.9419 14.34219029459497
