[{"OBJECT_NAME":"IRIDIUM 106","OBJECT_ID":"2017-003A","EPOCH":"2026-04-05T02:49:21.995616","MEAN_MOTION":14.34217377,"ECCENTRICITY":0.00026003,"INCLINATION":86.3933,"RA_OF_ASC_NODE":119.1139,"ARG_OF_PERICENTER":97.9103,"MEAN_ANOMALY":262.2388,"EPHEMERIS_TYPE":0,"CLASSIFICATION_TYPE":"U","NORAD_CAT_ID":41917,"ELEMENT_SET_NO":999,"REV_AT_EPOCH":48273,"BSTAR":4.679725e-5,"MEAN_MOTION_DOT":1.51e-6,"MEAN_MOTION_DDOT":0},{"OBJECT_NAME":"IRIDIUM 103","OBJECT_ID":"2017-003B","EPOCH":"2026-04-05T07:32:29.888448","MEAN_MOTION":14.34217227,"ECCENTRICITY":0.00019913,"INCLINATION":86.3933,"RA_OF_ASC_NODE":118.9316,"ARG_OF_PERICENTER":96.0861,"MEAN_ANOMALY":264.0561,"EPHEMERIS_TYPE":0,"CLASSIFICATION_TYPE":"U","NORAD_CAT_ID":41918,"ELEMENT_SET_NO":999,"REV_AT_EPOCH":48278,"BSTAR":4.5297892e-5,"MEAN_MOTION_DOT":1.47e-6,"MEAN_MOTION_DDOT":0},{"OBJECT_NAME":"IRIDIUM 109","OBJECT_ID":"2017-003C","EPOCH":"2026-04-05T02:40:14.218752","MEAN_MOTION":14.34217898,"ECCENTRICITY":0.00022241,"INCLINATION":86.3934,"RA_OF_ASC_NODE":119.0749,"ARG_OF_PERICENTER":93.5887,"MEAN_ANOMALY":266.5563,"EPHEMERIS_TYPE":0,"CLASSIFICATION_TYPE":"U","NORAD_CAT_ID":41919,"ELEMENT_SET_NO":999,"REV_AT_EPOCH":48272,"BSTAR":-2.38685e-7,"MEAN_MOTION_DOT":1.9e-7,"MEAN_MOTION_DDOT":0},{"OBJECT_NAME":"IRIDIUM 102","OBJECT_ID":"2017-003D","EPOCH":"2026-04-05T03:35:02.112000","MEAN_MOTION":14.34217487,"ECCENTRICITY":0.00023361,"INCLINATION":86.3933,"RA_OF_ASC_NODE":118.9839,"ARG_OF_PERICENTER":91.4785,"MEAN_ANOMALY":268.6679,"EPHEMERIS_TYPE":0,"CLASSIFICATION_TYPE":"U","NORAD_CAT_ID":41920,"ELEMENT_SET_NO":999,"REV_AT_EPOCH":48281,"BSTAR":2.5851978e-5,"MEAN_MOTION_DOT":9.2e-7,"MEAN_MOTION_DDOT":0},{"OBJECT_NAME":"IRIDIUM 105","OBJECT_ID":"2017-003E","EPOCH":"2026-04-04T23:20:01.002912","MEAN_MOTION":14.34399763,"ECCENTRICITY":0.00022005,"INCLINATION":86.3915,"RA_OF_ASC_NODE":87.4883,"ARG_OF_PERICENTER":89.4315,"MEAN_ANOMALY":270.7133,"EPHEMERIS_TYPE":0,"CLASSIFICATION_TYPE":"U","NORAD_CAT_ID":41921,"ELEMENT_SET_NO":999,"REV_AT_EPOCH":48464,"BSTAR":4.9857311e-5,"MEAN_MOTION_DOT":1.6e-6,"MEAN_MOTION_DDOT":0},{"OBJECT_NAME":"IRIDIUM 104","OBJECT_ID":"2017-003F","EPOCH":"2026-04-05T07:14:14.150688","MEAN_MOTION":14.34217084,"ECCENTRICITY":0.00018655,"INCLINATION":86.3937,"RA_OF_ASC_NODE":118.9618,"ARG_OF_PERICENTER":90.49,"MEAN_ANOMALY":269.6509,"EPHEMERIS_TYPE":0,"CLASSIFICATION_TYPE":"U","NORAD_CAT_ID":41922,"ELEMENT_SET_NO":999,"REV_AT_EPOCH":48282,"BSTAR":2.488298e-6,"MEAN_MOTION_DOT":2.7e-7,"MEAN_MOTION_DDOT":0},{"OBJECT_NAME":"IRIDIUM 114","OBJECT_ID":"2017-003G","EPOCH":"2026-04-05T07:23:22.207488","MEAN_MOTION":14.34217719,"ECCENTRICITY":0.00020586,"INCLINATION":86.3934,"RA_OF_ASC_NODE":118.9427,"ARG_OF_PERICENTER":94.0979,"MEAN_ANOMALY":266.0452,"EPHEMERIS_TYPE":0,"CLASSIFICATION_TYPE":"U","NORAD_CAT_ID":41923,"ELEMENT_SET_NO":999,"REV_AT_EPOCH":48280,"BSTAR":1.036904e-6,"MEAN_MOTION_DOT":2.3e-7,"MEAN_MOTION_DDOT":0},{"OBJECT_NAME":"IRIDIUM 108","OBJECT_ID":"2017-003H","EPOCH":"2026-04-04T22:01:18.475680","MEAN_MOTION":14.34219174,"ECCENTRICITY":0.00023349,"INCLINATION":86.391,"RA_OF_ASC_NODE":87.4022,"ARG_OF_PERICENTER":87.2271,"MEAN_ANOMALY":272.9192,"EPHEMERIS_TYPE":0,"CLASSIFICATION_TYPE":"U","NORAD_CAT_ID":41924,"ELEMENT_SET_NO":999,"REV_AT_EPOCH":48460,"BSTAR":2.6683101e-5,"MEAN_MOTION_DOT":9.5e-7,"MEAN_MOTION_DDOT":0},{"OBJECT_NAME":"IRIDIUM 112","OBJECT_ID":"2017-003J","EPOCH":"2026-04-05T03:44:10.221504","MEAN_MOTION":14.3421758,"ECCENTRICITY":0.00020369,"INCLINATION":86.3933,"RA_OF_ASC_NODE":118.8517,"ARG_OF_PERICENTER":90.7854,"MEAN_ANOMALY":269.3575,"EPHEMERIS_TYPE":0,"CLASSIFICATION_TYPE":"U","NORAD_CAT_ID":41925,"ELEMENT_SET_NO":999,"REV_AT_EPOCH":48280,"BSTAR":-3.64211e-6,"MEAN_MOTION_DOT":1.0e-7,"MEAN_MOTION_DDOT":0},{"OBJECT_NAME":"IRIDIUM 111","OBJECT_ID":"2017-003K","EPOCH":"2026-04-05T03:25:54.221952","MEAN_MOTION":14.34217811,"ECCENTRICITY":0.00022144,"INCLINATION":86.3932,"RA_OF_ASC_NODE":118.9261,"ARG_OF_PERICENTER":94.5906,"MEAN_ANOMALY":265.5542,"EPHEMERIS_TYPE":0,"CLASSIFICATION_TYPE":"U","NORAD_CAT_ID":41926,"ELEMENT_SET_NO":999,"REV_AT_EPOCH":48278,"BSTAR":8.22456e-7,"MEAN_MOTION_DOT":2.2e-7,"MEAN_MOTION_DDOT":0},{"OBJECT_NAME":"IRIDIUM 113","OBJECT_ID":"2017-039A","EPOCH":"2026-04-05T04:37:31.142784","MEAN_MOTION":14.34218929,"ECCENTRICITY":0.00017851,"INCLINATION":86.4017,"RA_OF_ASC_NODE":352.6888,"ARG_OF_PERICENTER":79.8774,"MEAN_ANOMALY":280.2623,"EPHEMERIS_TYPE":0,"CLASSIFICATION_TYPE":"U","NORAD_CAT_ID":42803,"ELEMENT_SET_NO":999,"REV_AT_EPOCH":46072,"BSTAR":-6.9142304e-5,"MEAN_MOTION_DOT":-1.74e-6,"MEAN_MOTION_DDOT":0},{"OBJECT_NAME":"IRIDIUM 123","OBJECT_ID":"2017-039B","EPOCH":"2026-04-05T05:37:14.866176","MEAN_MOTION":14.34218866,"ECCENTRICITY":0.00021975,"INCLINATION":86.4016,"RA_OF_ASC_NODE":24.1153,"ARG_OF_PERICENTER":90.4055,"MEAN_ANOMALY":269.7392,"EPHEMERIS_TYPE":0,"CLASSIFICATION_TYPE":"U","NORAD_CAT_ID":42804,"ELEMENT_SET_NO":999,"REV_AT_EPOCH":45949,"BSTAR":7.6773107e-5,"MEAN_MOTION_DOT":2.35e-6,"MEAN_MOTION_DDOT":0},{"OBJECT_NAME":"IRIDIUM 120","OBJECT_ID":"2017-039C","EPOCH":"2026-04-05T04:28:23.211264","MEAN_MOTION":14.34217387,"ECCENTRICITY":0.00023219,"INCLINATION":86.4012,"RA_OF_ASC_NODE":352.4839,"ARG_OF_PERICENTER":85.5716,"MEAN_ANOMALY":274.5745,"EPHEMERIS_TYPE":0,"CLASSIFICATION_TYPE":"U","NORAD_CAT_ID":42805,"ELEMENT_SET_NO":999,"REV_AT_EPOCH":46071,"BSTAR":-1.1913968e-5,"MEAN_MOTION_DOT":-1.4e-7,"MEAN_MOTION_DDOT":0},{"OBJECT_NAME":"IRIDIUM 115","OBJECT_ID":"2017-039D","EPOCH":"2026-04-05T04:22:50.503008","MEAN_MOTION":14.43280292,"ECCENTRICITY":0.0002345,"INCLINATION":86.4551,"RA_OF_ASC_NODE":352.6042,"ARG_OF_PERICENTER":93.2036,"MEAN_ANOMALY":266.9434,"EPHEMERIS_TYPE":0,"CLASSIFICATION_TYPE":"U","NORAD_CAT_ID":42806,"ELEMENT_SET_NO":999,"REV_AT_EPOCH":46373,"BSTAR":0.00016068781,"MEAN_MOTION_DOT":5.61e-6,"MEAN_MOTION_DDOT":0},{"OBJECT_NAME":"IRIDIUM 118","OBJECT_ID":"2017-039E","EPOCH":"2026-04-05T06:22:54.737184","MEAN_MOTION":14.3421931,"ECCENTRICITY":0.00020516,"INCLINATION":86.4013,"RA_OF_ASC_NODE":24.1002,"ARG_OF_PERICENTER":83.6308,"MEAN_ANOMALY":276.5122,"EPHEMERIS_TYPE":0,"CLASSIFICATION_TYPE":"U","NORAD_CAT_ID":42807,"ELEMENT_SET_NO":999,"REV_AT_EPOCH":45949,"BSTAR":-2.4184968e-5,"MEAN_MOTION_DOT":-4.8e-7,"MEAN_MOTION_DDOT":0},{"OBJECT_NAME":"IRIDIUM 117","OBJECT_ID":"2017-039F","EPOCH":"2026-04-05T06:50:18.775392","MEAN_MOTION":14.34219425,"ECCENTRICITY":0.00021553,"INCLINATION":86.4014,"RA_OF_ASC_NODE":24.0508,"ARG_OF_PERICENTER":89.0377,"MEAN_ANOMALY":271.1066,"EPHEMERIS_TYPE":0,"CLASSIFICATION_TYPE":"U","NORAD_CAT_ID":42808,"ELEMENT_SET_NO":999,"REV_AT_EPOCH":45952,"BSTAR":9.6744321e-5,"MEAN_MOTION_DOT":2.91e-6,"MEAN_MOTION_DDOT":0},{"OBJECT_NAME":"IRIDIUM 126","OBJECT_ID":"2017-039G","EPOCH":"2026-04-05T05:46:22.791648","MEAN_MOTION":14.34219029,"ECCENTRICITY":0.00020453,"INCLINATION":86.4014,"RA_OF_ASC_NODE":24.1192,"ARG_OF_PERICENTER":87.2011,"MEAN_ANOMALY":272.9419,"EPHEMERIS_TYPE":0,"CLASSIFICATION_TYPE":"U","NORAD_CAT_ID":42809,"ELEMENT_SET_NO":999,"REV_AT_EPOCH":45949,"BSTAR":3.9541308e-5,"MEAN_MOTION_DOT":1.31e-6,"MEAN_MOTION_DDOT":0}]
